[{"OBJECT_NAME":"DONGPO 10","OBJECT_ID":"2022-167H","EPOCH":"2026-03-09T22:44:56.137344","MEAN_MOTION":15.322785,"ECCENTRICITY":0.00061655,"INCLINATION":97.685,"RA_OF_ASC_NODE":235.0962,"ARG_OF_PERICENTER":106.9526,"MEAN_ANOMALY":253.2392,"EPHEMERIS_TYPE":0,"CLASSIFICATION_TYPE":"U","NORAD_CAT_ID":54689,"ELEMENT_SET_NO":999,"REV_AT_EPOCH":18015,"BSTAR":0.00049390523,"MEAN_MOTION_DOT":0.00015333,"MEAN_MOTION_DDOT":0},{"OBJECT_NAME":"STARLINK-35592","OBJECT_ID":"2025-237Y","EPOCH":"2026-03-09T07:17:47.937984","MEAN_MOTION":15.30187291,"ECCENTRICITY":0.00011472,"INCLINATION":53.1615,"RA_OF_ASC_NODE":41.2599,"ARG_OF_PERICENTER":87.5016,"MEAN_ANOMALY":272.6116,"EPHEMERIS_TYPE":0,"CLASSIFICATION_TYPE":"U","NORAD_CAT_ID":66136,"ELEMENT_SET_NO":999,"REV_AT_EPOCH":2255,"BSTAR":0.0002291663,"MEAN_MOTION_DOT":6.431e-5,"MEAN_MOTION_DDOT":0}]
